{"type": "FeatureCollection", "features": [{"type": "Feature", "properties": {"norad_id": 50032, "name": "COSMOS 1408 DEB", "group": "cosmos-1408-debris", "lat": -38.78909206495066, "lon": -110.77194519416393, "alt_km": 426.09667042332785, "timestamp": "2025-12-08T03:50:07.267755+00:00", "meta": {"OBJECT_NAME": "COSMOS 1408 DEB", "OBJECT_ID": "1982-092RU", "EPOCH": "2025-12-07T05:08:11.743584", "MEAN_MOTION": 15.45610344, "ECCENTRICITY": 0.00147981, "INCLINATION": 82.5646, "RA_OF_ASC_NODE": 64.1721, "ARG_OF_PERICENTER": 230.0224, "MEAN_ANOMALY": 129.9726, "EPHEMERIS_TYPE": 0, "CLASSIFICATION_TYPE": "U", "NORAD_CAT_ID": 50032, "ELEMENT_SET_NO": 999, "REV_AT_EPOCH": 22518, "BSTAR": 0.00016383626, "MEAN_MOTION_DOT": 7.955e-05, "MEAN_MOTION_DDOT": 0}, "tle": {"line1": "1 50032U 82092RU  25341.21402481  .00007955  00000+0  16384-3 0  9998", "line2": "2 50032  82.5646  64.1721 0014798 230.0224 129.9726 15.45610344225183"}}, "geometry": {"type": "Point", "coordinates": [-110.77194519416393, -38.78909206495066]}}, {"type": "Feature", "properties": {"norad_id": 50058, "name": "COSMOS 1408 DEB", "group": "cosmos-1408-debris", "lat": 58.39050677922308, "lon": -118.03579551994207, "alt_km": 360.4259934947904, "timestamp": "2025-12-08T03:50:07.267776+00:00", "meta": {"OBJECT_NAME": "COSMOS 1408 DEB", "OBJECT_ID": "1982-092SW", "EPOCH": "2025-12-06T23:40:31.712160", "MEAN_MOTION": 15.636007, "ECCENTRICITY": 0.00163199, "INCLINATION": 82.6134, "RA_OF_ASC_NODE": 75.3606, "ARG_OF_PERICENTER": 119.213, "MEAN_ANOMALY": 241.0763, "EPHEMERIS_TYPE": 0, "CLASSIFICATION_TYPE": "U", "NORAD_CAT_ID": 50058, "ELEMENT_SET_NO": 999, "REV_AT_EPOCH": 22714, "BSTAR": 0.00046909944, "MEAN_MOTION_DOT": 0.00044, "MEAN_MOTION_DDOT": 0}, "tle": {"line1": "1 50058U 82092SW  25340.98647815  .00044000  00000+0  46910-3 0  9991", "line2": "2 50058  82.6134  75.3606 0016319 119.2130 241.0763 15.63600700227145"}}, "geometry": {"type": "Point", "coordinates": [-118.03579551994207, 58.39050677922308]}}, {"type": "Feature", "properties": {"norad_id": 50404, "name": "COSMOS 1408 DEB", "group": "cosmos-1408-debris", "lat": -14.610022089267037, "lon": -142.32753082562309, "alt_km": 609.2151497188261, "timestamp": "2025-12-08T03:50:07.267789+00:00", "meta": {"OBJECT_NAME": "COSMOS 1408 DEB", "OBJECT_ID": "1982-092ADS", "EPOCH": "2025-12-07T02:30:04.868064", "MEAN_MOTION": 15.12644059, "ECCENTRICITY": 0.01742329, "INCLINATION": 82.204, "RA_OF_ASC_NODE": 220.7981, "ARG_OF_PERICENTER": 218.3563, "MEAN_ANOMALY": 140.5177, "EPHEMERIS_TYPE": 0, "CLASSIFICATION_TYPE": "U", "NORAD_CAT_ID": 50404, "ELEMENT_SET_NO": 999, "REV_AT_EPOCH": 21108, "BSTAR": 0.0038217679, "MEAN_MOTION_DOT": 0.00098122, "MEAN_MOTION_DDOT": 0}, "tle": {"line1": "1 50404U 82092ADS 25341.10422301  .00098122  00000+0  38218-2 0  9997", "line2": "2 50404  82.2040 220.7981 0174232 218.3563 140.5177 15.12644059211081"}}, "geometry": {"type": "Point", "coordinates": [-142.32753082562309, -14.610022089267037]}}, {"type": "Feature", "properties": {"norad_id": 50621, "name": "COSMOS 1408 DEB", "group": "cosmos-1408-debris", "lat": -77.14963494280397, "lon": -66.16812787170204, "alt_km": 405.6108643319576, "timestamp": "2025-12-08T03:50:07.267801+00:00", "meta": {"OBJECT_NAME": "COSMOS 1408 DEB", "OBJECT_ID": "1982-092ALR", "EPOCH": "2025-12-06T05:58:21.140256", "MEAN_MOTION": 15.56160395, "ECCENTRICITY": 0.00287722, "INCLINATION": 82.5723, "RA_OF_ASC_NODE": 80.9361, "ARG_OF_PERICENTER": 176.4358, "MEAN_ANOMALY": 183.7108, "EPHEMERIS_TYPE": 0, "CLASSIFICATION_TYPE": "U", "NORAD_CAT_ID": 50621, "ELEMENT_SET_NO": 999, "REV_AT_EPOCH": 22149, "BSTAR": 0.00059401028, "MEAN_MOTION_DOT": 0.00042512, "MEAN_MOTION_DDOT": 0}, "tle": {"line1": "1 50621U 82092ALR 25340.24885579  .00042512  00000+0  59401-3 0  9992", "line2": "2 50621  82.5723  80.9361 0028772 176.4358 183.7108 15.56160395221497"}}, "geometry": {"type": "Point", "coordinates": [-66.16812787170204, -77.14963494280397]}}]}